NORAD_CAT_ID,OBJECT_NAME,OBJECT_TYPE,EPOCH,MEAN_MOTION,ECCENTRICITY,INCLINATION,RA_OF_ASC_NODE,ARG_OF_PERICENTER,MEAN_ANOMALY,BSTAR,MEAN_MOTION_DOT,MEAN_MOTION_DDOT,TLE_LINE0,TLE_LINE1,TLE_LINE2,SEMIMAJOR_AXIS,PERIOD,APOGEE,PERIGEE,DECAYED
54172.0,STARLINK-5117,PAYLOAD,2023-08-27 06:53:21,15.08852055,0.0001392,53.2153,198.3846,90.7495,269.3657,0.00018066,2.589e-05,0.0,0 STARLINK-5117,1 54172U 22141R   23239.28705513  .00002589  00000-0  18066-3 0  9997,2 54172  53.2153 198.3846 0001392  90.7495 269.3657 15.08852055 46151,6917.844,95.437,540.672,538.746,0.0
54172.0,STARLINK-5117,PAYLOAD,2023-08-28 03:33:22,15.08839917,0.0001305,53.2154,194.5185,91.3858,268.7283,5.829e-05,6.4e-06,0.0,0 STARLINK-5117,1 54172U 22141R   23240.14818227  .00000640  00000-0  58290-4 0  9991,2 54172  53.2154 194.5185 0001305  91.3858 268.7283 15.08839917 46284,6917.881,95.438,540.648,538.843,0.0
54172.0,STARLINK-5117,PAYLOAD,2023-08-28 06:44:09,15.08843654,0.0001276,53.2155,193.924,90.0859,270.0279,0.00011482,1.54e-05,0.0,0 STARLINK-5117,1 54172U 22141R   23240.28066046  .00001540  00000-0  11482-3 0  9991,2 54172  53.2155 193.9240 0001276  90.0859 270.0279 15.08843654 46301,6917.869,95.437,540.617,538.852,0.0
54172.0,STARLINK-5117,PAYLOAD,2023-08-29 06:34:55,15.08855725,0.00013,53.2163,189.4634,96.0,264.114,-8.5995e-06,-4.25e-06,0.0,0 STARLINK-5117,1 54172U 22141R   23241.27425404 -.00000425  00000-0 -85995-5 0  9993,2 54172  53.2163 189.4634 0001300  96.0000 264.1140 15.08855725 46458,6917.832,95.437,540.597,538.798,0.0
54172.0,STARLINK-5117,PAYLOAD,2023-08-30 01:39:34,15.08834423,0.000127,53.2167,185.8961,91.9076,268.2062,6.4444e-06,-1.85e-06,0.0,0 STARLINK-5117,1 54172U 22141R   23242.06914762 -.00000185  00000-0  64444-5 0  9999,2 54172  53.2167 185.8961 0001270  91.9076 268.2062 15.08834423 46571,6917.897,95.438,540.641,538.884,0.0
54172.0,STARLINK-5117,PAYLOAD,2023-08-30 12:47:16,15.08837682,0.0001139,53.2162,183.8145,96.5365,263.5757,4.2791e-05,3.93e-06,0.0,0 STARLINK-5117,1 54172U 22141R   23242.53282649  .00000393  00000-0  42791-4 0  9993,2 54172  53.2162 183.8145 0001139  96.5365 263.5757 15.08837682 46641,6917.887,95.438,540.54,538.965,0.0
54172.0,STARLINK-5117,PAYLOAD,2023-08-31 03:05:44,15.08839261,0.0001242,53.2164,181.1392,93.5038,266.6096,3.5716e-05,2.81e-06,0.0,0 STARLINK-5117,1 54172U 22141R   23243.12898749  .00000281  00000-0  35716-4 0  9998,2 54172  53.2164 181.1392 0001242  93.5038 266.6096 15.08839261 46732,6917.883,95.438,540.607,538.888,0.0
54172.0,STARLINK-5117,PAYLOAD,2023-09-01 06:07:18,15.08839,0.0001484,53.2166,176.0843,95.4425,264.6736,0.00021341,3.11e-05,0.0,0 STARLINK-5117,1 54172U 22141R   23244.25507069  .00003110  00000-0  21341-3 0  9997,2 54172  53.2166 176.0843 0001484  95.4425 264.6736 15.08839000 46906,6917.883,95.438,540.775,538.722,0.0
54172.0,STARLINK-5117,PAYLOAD,2023-09-01 12:28:50,15.08840978,0.0001115,53.2164,174.8935,84.5699,275.542,9.2684e-05,1.188e-05,0.0,0 STARLINK-5117,1 54172U 22141R   23244.52002844  .00001188  00000-0  92684-4 0  9990,2 54172  53.2164 174.8935 0001115  84.5699 275.5420 15.08840978 46946,6917.877,95.437,540.514,538.971,0.0
54172.0,STARLINK-5117,PAYLOAD,2023-09-02 18:41:10,15.08845136,0.0001367,53.2165,169.2428,87.6917,272.4232,9.5984e-05,1.24e-05,0.0,0 STARLINK-5117,1 54172U 22141R   23245.77858840  .00001240  00000-0  95984-4 0  9998,2 54172  53.2165 169.2428 0001367  87.6917 272.4232 15.08845136 47138,6917.865,95.437,540.675,538.784,0.0
54172.0,STARLINK-5117,PAYLOAD,2023-09-03 12:10:24,15.08838457,0.000142,53.2172,165.9731,76.5598,283.5553,-7.8869e-06,-4.13e-06,0.0,0 STARLINK-5117,1 54172U 22141R   23246.50722342 -.00000413  00000-0 -78869-5 0  9994,2 54172  53.2172 165.9731 0001420  76.5598 283.5553 15.08838457 47247,6917.885,95.438,540.732,538.768,0.0
54172.0,STARLINK-5117,PAYLOAD,2023-09-04 00:53:30,15.08833921,0.0001394,53.2156,163.593,94.2246,265.8906,-1.5583e-05,-5.36e-06,0.0,0 STARLINK-5117,1 54172U 22141R   23247.03715569 -.00000536  00000-0 -15583-4 0  9995,2 54172  53.2156 163.5930 0001394  94.2246 265.8906 15.08833921 47326,6917.899,95.438,540.728,538.8,0.0
54172.0,STARLINK-5117,PAYLOAD,2023-09-04 12:01:12,15.08833593,0.0001137,53.2168,161.512,88.2108,271.9014,9.0844e-05,1.158e-05,0.0,0 STARLINK-5117,1 54172U 22141R   23247.50083693  .00001158  00000-0  90844-4 0  9995,2 54172  53.2168 161.5120 0001137  88.2108 271.9014 15.08833593 47393,6917.9,95.438,540.552,538.978,0.0
54172.0,STARLINK-5117,PAYLOAD,2023-09-05 00:44:19,15.08815701,0.0001402,53.2171,159.1341,91.8224,268.2928,-0.00011008,-2.038e-05,0.0,0 STARLINK-5117,1 54172U 22141R   23248.03077950 -.00002038  00000-0 -11008-3 0  9997,2 54172  53.2171 159.1341 0001402  91.8224 268.2928 15.08815701 47472,6917.955,95.439,540.79,538.85,0.0
54172.0,STARLINK-5117,PAYLOAD,2023-09-06 00:35:04,15.08844585,0.0001543,53.217,154.6721,100.4312,259.6854,0.00022112,3.233e-05,0.0,0 STARLINK-5117,1 54172U 22141R   23249.02435976  .00003233  00000-0  22112-3 0  9997,2 54172  53.2170 154.6721 0001543 100.4312 259.6854 15.08844585 47625,6917.866,95.437,540.799,538.664,0.0
54172.0,STARLINK-5117,PAYLOAD,2023-09-07 03:36:37,15.08858562,0.0001499,53.2155,149.6178,99.9971,260.1191,0.00052546,8.089e-05,0.0,0 STARLINK-5117,1 54172U 22141R   23250.15043693  .00008089  00000-0  52546-3 0  9992,2 54172  53.2155 149.6178 0001499  99.9971 260.1191 15.08858562 47790,6917.824,95.436,540.726,538.652,0.0
54172.0,STARLINK-5117,PAYLOAD,2023-09-07 17:55:05,15.08851996,0.0002042,53.2159,146.9416,96.6637,263.4587,3.1972e-05,2.21e-06,0.0,0 STARLINK-5117,1 54172U 22141R   23250.74659680  .00000221  00000-0  31972-4 0  9997,2 54172  53.2159 146.9416 0002042  96.6637 263.4587 15.08851996 47886,6917.844,95.437,541.121,538.296,0.0
54172.0,STARLINK-5117,PAYLOAD,2023-09-07 19:30:29,15.08848098,0.0001488,53.2155,146.6446,93.4717,266.6446,-2.0728e-05,-6.18e-06,0.0,0 STARLINK-5117,1 54172U 22141R   23250.81283819 -.00000618  00000-0 -20728-4 0  9991,2 54172  53.2155 146.6446 0001488  93.4717 266.6446 15.08848098 47898,6917.856,95.437,540.75,538.691,0.0
54172.0,STARLINK-5117,PAYLOAD,2023-09-08 16:10:29,15.08845734,0.0001524,53.2152,142.7792,93.0658,267.0508,-2.3514e-05,-6.62e-06,0.0,0 STARLINK-5117,1 54172U 22141R   23251.67395604 -.00000662  00000-0 -23514-4 0  9997,2 54172  53.2152 142.7792 0001524  93.0658 267.0508 15.08845734 48021,6917.863,95.437,540.782,538.674,0.0
54172.0,STARLINK-5117,PAYLOAD,2023-09-08 20:56:37,15.08889062,0.0001726,53.2159,141.8845,80.7615,279.3572,-0.0011615,-0.00018751,0.0,0 STARLINK-5117,1 54172U 22141R   23251.87265439 -.00018751  00000-0 -11615-2 0  9996,2 54172  53.2159 141.8845 0001726  80.7615 279.3572 15.08889062 48059,6917.73,95.434,540.789,538.401,0.0
54172.0,STARLINK-5117,PAYLOAD,2023-09-09 12:50:30,15.08841315,0.0001637,53.2146,138.9147,85.3013,274.8166,0.00014607,2.038e-05,0.0,0 STARLINK-5117,1 54172U 22141R   23252.53507763  .00002038  00000-0  14607-3 0  9993,2 54172  53.2146 138.9147 0001637  85.3013 274.8166 15.08841315 48150,6917.876,95.437,540.874,538.609,0.0
54172.0,STARLINK-5117,PAYLOAD,2023-09-09 17:36:40,15.08836647,0.0001446,53.2154,138.022,83.171,276.9447,2.8059e-05,1.59e-06,0.0,0 STARLINK-5117,1 54172U 22141R   23252.73379939  .00000159  00000-0  28059-4 0  9996,2 54172  53.2154 138.0220 0001446  83.1710 276.9447 15.08836647 48180,6917.891,95.438,540.756,538.755,0.0
54172.0,STARLINK-5117,PAYLOAD,2023-09-09 23:58:12,15.08844931,0.0001392,53.2158,136.8326,77.4335,282.6813,0.00019394,2.8e-05,0.0,0 STARLINK-5117,1 54172U 22141R   23252.99875679  .00002800  00000-0  19394-3 0  9992,2 54172  53.2158 136.8326 0001392  77.4335 282.6813 15.08844931 48227,6917.865,95.437,540.693,538.767,0.0
54172.0,STARLINK-5117,PAYLOAD,2023-09-10 11:05:54,15.08840387,0.0001318,53.2155,134.7517,83.8213,276.2929,0.00012255,1.663e-05,0.0,0 STARLINK-5117,1 54172U 22141R   23253.46243854  .00001663  00000-0  12255-3 0  9994,2 54172  53.2155 134.7517 0001318  83.8213 276.2929 15.08840387 48292,6917.879,95.438,540.656,538.832,0.0
54172.0,STARLINK-5117,PAYLOAD,2023-09-11 09:21:18,15.08842017,0.0001272,53.2153,130.5877,87.6007,272.5131,0.00017564,2.509e-05,0.0,0 STARLINK-5117,1 54172U 22141R   23254.38979977  .00002509  00000-0  17564-3 0  9996,2 54172  53.2153 130.5877 0001272  87.6007 272.5131 15.08842017 48437,6917.874,95.437,540.619,538.859,0.0
54172.0,STARLINK-5117,PAYLOAD,2023-09-11 15:42:51,15.08842285,0.0001303,53.2152,129.3983,85.4023,274.7118,0.00020753,3.017e-05,0.0,0 STARLINK-5117,1 54172U 22141R   23254.65476026  .00003017  00000-0  20753-3 0  9992,2 54172  53.2152 129.3983 0001303  85.4023 274.7118 15.08842285 48479,6917.873,95.437,540.64,538.837,0.0
54172.0,STARLINK-5117,PAYLOAD,2023-09-12 01:15:09,15.0885199,0.0001295,53.2153,127.6138,89.2273,270.8868,0.00026563,3.943e-05,0.0,0 STARLINK-5117,1 54172U 22141R   23255.05219515  .00003943  00000-0  26563-3 0  9998,2 54172  53.2153 127.6138 0001295  89.2273 270.8868 15.08851990 48531,6917.844,95.437,540.605,538.813,0.0
54172.0,STARLINK-5117,PAYLOAD,2023-09-12 20:19:47,15.08845171,0.0001161,53.2158,124.045,92.877,267.2355,0.00020338,2.951e-05,0.0,0 STARLINK-5117,1 54172U 22141R   23255.84707906  .00002951  00000-0  20338-3 0  9993,2 54172  53.2158 124.0450 0001161  92.8770 267.2355 15.08845171 48656,6917.865,95.437,540.533,538.926,0.0
54172.0,STARLINK-5117,PAYLOAD,2023-09-12 21:55:10,15.08848036,0.000126,53.2153,123.7479,94.0804,266.0332,0.00025032,3.699e-05,0.0,0 STARLINK-5117,1 54172U 22141R   23255.91331794  .00003699  00000-0  25032-3 0  9995,2 54172  53.2153 123.7479 0001260  94.0804 266.0332 15.08848036 48666,6917.856,95.437,540.592,538.849,0.0
54172.0,STARLINK-5117,PAYLOAD,2023-09-13 21:45:57,15.08852953,0.0001205,53.2153,119.2881,89.6096,270.5034,0.00024787,3.661e-05,0.0,0 STARLINK-5117,1 54172U 22141R   23256.90691315  .00003661  00000-0  24787-3 0  9998,2 54172  53.2153 119.2881 0001205  89.6096 270.5034 15.08852953 48814,6917.841,95.437,540.539,538.872,0.0
